{"type": "FeatureCollection", "features": [ {"type": "Feature", "properties": {"norad_id": 34077, "name": "IRIDIUM 33 DEB", "group": "iridium-33-debris", "lat": 41.72954763584012, "lon": -134.75362919232086, "alt_km": 677.5336159064682, "timestamp": "2025-12-19T14:48:36.632613+00:00", "meta": {"OBJECT_NAME": "IRIDIUM 33 DEB", "OBJECT_ID": "1997-051CL", "EPOCH": "2025-12-19T04:37:08.926752", "MEAN_MOTION": 14.64901937, "ECCENTRICITY": 0.00094858, "INCLINATION": 86.3856, "RA_OF_ASC_NODE": 48.6652, "ARG_OF_PERICENTER": 18.7729, "MEAN_ANOMALY": 41.3423, "EPHEMERIS_TYPE": 0, "CLASSIFICATION_TYPE": "U", "NORAD_CAT_ID": 34077, "ELEMENT_SET_NO": 999, "REV_AT_EPOCH": 88427, "BSTAR": 0.00072794541, "MEAN_MOTION_DOT": 3.915e-05, "MEAN_MOTION_DDOT": 0}, "tle": {"line1": "1 34077U 97051CL  25353.19246443  .00003915  00000+0  72795-3 0  9994", "line2": "2 34077  86.3856  48.6652 0009485  18.7729  41.3423 14.64901937884270"}}, "geometry": {"type": "Point", "coordinates": [-134.75362919232086, 41.72954763584012]}}, {"type": "Feature", "properties": {"norad_id": 34079, "name": "IRIDIUM 33 DEB", "group": "iridium-33-debris", "lat": -52.97831757785258, "lon": -169.6459697149849, "alt_km": 625.9965263164031, "timestamp": "2025-12-19T14:48:36.632624+00:00", "meta": {"OBJECT_NAME": "IRIDIUM 33 DEB", "OBJECT_ID": "1997-051CN", "EPOCH": "2025-12-19T07:23:13.665984", "MEAN_MOTION": 14.83686948, "ECCENTRICITY": 0.00048144, "INCLINATION": 86.3768, "RA_OF_ASC_NODE": 5.675, "ARG_OF_PERICENTER": 345.2663, "MEAN_ANOMALY": 36.9038, "EPHEMERIS_TYPE": 0, "CLASSIFICATION_TYPE": "U", "NORAD_CAT_ID": 34079, "ELEMENT_SET_NO": 999, "REV_AT_EPOCH": 89075, "BSTAR": 0.0011697955, "MEAN_MOTION_DOT": 9.693e-05, "MEAN_MOTION_DDOT": 0}, "tle": {"line1": "1 34079U 97051CN  25353.30779706  .00009693  00000+0  11698-2 0  9995", "line2": "2 34079  86.3768   5.6750 0004814 345.2663  36.9038 14.83686948890757"}}, "geometry": {"type": "Point", "coordinates": [-169.6459697149849, -52.97831757785258]}}, {"type": "Feature", "properties": {"norad_id": 34088, "name": "IRIDIUM 33 DEB", "group": "iridium-33-debris", "lat": 19.415112676439694, "lon": -153.71318817043945, "alt_km": 588.5803148583245, "timestamp": "2025-12-19T14:48:36.632636+00:00", "meta": {"OBJECT_NAME": "IRIDIUM 33 DEB", "OBJECT_ID": "1997-051CX", "EPOCH": "2025-12-19T03:03:48.145248", "MEAN_MOTION": 14.91662643, "ECCENTRICITY": 0.00063639, "INCLINATION": 86.3843, "RA_OF_ASC_NODE": 27.7888, "ARG_OF_PERICENTER": 156.0805, "MEAN_ANOMALY": 257.7392, "EPHEMERIS_TYPE": 0, "CLASSIFICATION_TYPE": "U", "NORAD_CAT_ID": 34088, "ELEMENT_SET_NO": 999, "REV_AT_EPOCH": 88837, "BSTAR": 0.00181826, "MEAN_MOTION_DOT": 0.00018329, "MEAN_MOTION_DDOT": 0}, "tle": {"line1": "1 34088U 97051CX  25353.12764057  .00018329  00000+0  18183-2 0  9990", "line2": "2 34088  86.3843  27.7888 0006363 156.0805 257.7392 14.91662643888371"}}, "geometry": {"type": "Point", "coordinates": [-153.71318817043945, 19.415112676439694]}}, {"type": "Feature", "properties": {"norad_id": 34091, "name": "IRIDIUM 33 DEB", "group": "iridium-33-debris", "lat": 67.7184121885317, "lon": -125.29801159482534, "alt_km": 637.2693898838943, "timestamp": "2025-12-19T14:48:36.632647+00:00", "meta": {"OBJECT_NAME": "IRIDIUM 33 DEB", "OBJECT_ID": "1997-051DA", "EPOCH": "2025-12-18T04:16:47.373312", "MEAN_MOTION": 14.8221607, "ECCENTRICITY": 0.00338054, "INCLINATION": 86.3422, "RA_OF_ASC_NODE": 64.3429, "ARG_OF_PERICENTER": 273.6022, "MEAN_ANOMALY": 86.1335, "EPHEMERIS_TYPE": 0, "CLASSIFICATION_TYPE": "U", "NORAD_CAT_ID": 34091, "ELEMENT_SET_NO": 999, "REV_AT_EPOCH": 87947, "BSTAR": 0.0037025527, "MEAN_MOTION_DOT": 0.00029931, "MEAN_MOTION_DDOT": 0}, "tle": {"line1": "1 34091U 97051DA  25352.17832608  .00029931  00000+0  37026-2 0  9994", "line2": "2 34091  86.3422  64.3429 0033805 273.6022  86.1335 14.82216070879475"}}, "geometry": {"type": "Point", "coordinates": [-125.29801159482534, 67.7184121885317]}}, {"type": "Feature", "properties": {"norad_id": 34097, "name": "IRIDIUM 33 DEB", "group": "iridium-33-debris", "lat": -86.14695844952524, "lon": -82.31857729190907, "alt_km": 761.7682337834594, "timestamp": "2025-12-19T14:48:36.632658+00:00", "meta": {"OBJECT_NAME": "IRIDIUM 33 DEB", "OBJECT_ID": "1997-051DG", "EPOCH": "2025-12-19T00:09:26.087616", "MEAN_MOTION": 14.34825402, "ECCENTRICITY": 0.00819041, "INCLINATION": 86.2, "RA_OF_ASC_NODE": 358.6418, "ARG_OF_PERICENTER": 341.7144, "MEAN_ANOMALY": 18.111, "EPHEMERIS_TYPE": 0, "CLASSIFICATION_TYPE": "U", "NORAD_CAT_ID": 34097, "ELEMENT_SET_NO": 999, "REV_AT_EPOCH": 87209, "BSTAR": 0.0011301988, "MEAN_MOTION_DOT": 3.348e-05, "MEAN_MOTION_DDOT": 0}, "tle": {"line1": "1 34097U 97051DG  25353.00655194  .00003348  00000+0  11302-2 0  9999", "line2": "2 34097  86.2000 358.6418 0081904 341.7144  18.1110 14.34825402872093"}}, "geometry": {"type": "Point", "coordinates": [-82.31857729190907, -86.14695844952524]}}, {"type": "Feature", "properties": {"norad_id": 34145, "name": "IRIDIUM 33 DEB", "group": "iridium-33-debris", "lat": 5.682920083445126, "lon": -30.158826698554247, "alt_km": 736.7525054154394, "timestamp": "2025-12-19T14:48:36.632669+00:00", "meta": {"OBJECT_NAME": "IRIDIUM 33 DEB", "OBJECT_ID": "1997-051DY", "EPOCH": "2025-12-18T08:48:48.486240", "MEAN_MOTION": 14.42328092, "ECCENTRICITY": 0.00557365, "INCLINATION": 86.2113, "RA_OF_ASC_NODE": 330.0199, "ARG_OF_PERICENTER": 75.968, "MEAN_ANOMALY": 284.7708, "EPHEMERIS_TYPE": 0, "CLASSIFICATION_TYPE": "U", "NORAD_CAT_ID": 34145, "ELEMENT_SET_NO": 999, "REV_AT_EPOCH": 87719, "BSTAR": 0.00092678493, "MEAN_MOTION_DOT": 3.137e-05, "MEAN_MOTION_DDOT": 0}, "tle": {"line1": "1 34145U 97051DY  25352.36722785  .00003137  00000+0  92678-3 0  9994", "line2": "2 34145  86.2113 330.0199 0055736  75.9680 284.7708 14.42328092877199"}}, "geometry": {"type": "Point", "coordinates": [-30.158826698554247, 5.682920083445126]}}, {"type": "Feature", "properties": {"norad_id": 34146, "name": "IRIDIUM 33 DEB", "group": "iridium-33-debris", "lat": 8.872136525632317, "lon": 166.1808075843442, "alt_km": 713.8835277530961, "timestamp": "2025-12-19T14:48:36.632680+00:00", "meta": {"OBJECT_NAME": "IRIDIUM 33 DEB", "OBJECT_ID": "1997-051DZ", "EPOCH": "2025-12-18T23:22:46.077024", "MEAN_MOTION": 14.49088603, "ECCENTRICITY": 0.00260878, "INCLINATION": 86.2829, "RA_OF_ASC_NODE": 347.0462, "ARG_OF_PERICENTER": 199.8363, "MEAN_ANOMALY": 219.3623, "EPHEMERIS_TYPE": 0, "CLASSIFICATION_TYPE": "U", "NORAD_CAT_ID": 34146, "ELEMENT_SET_NO": 999, "REV_AT_EPOCH": 88197, "BSTAR": 0.00067792412, "MEAN_MOTION_DOT": 2.605e-05, "MEAN_MOTION_DDOT": 0}, "tle": {"line1": "1 34146U 97051DZ  25352.97414441  .00002605  00000+0  67792-3 0  9997", "line2": "2 34146  86.2829 347.0462 0026087 199.8363 219.3623 14.49088603881975"}}, "geometry": {"type": "Point", "coordinates": [166.1808075843442, 8.872136525632317]}}, {"type": "Feature", "properties": {"norad_id": 34159, "name": "IRIDIUM 33 DEB", "group": "iridium-33-debris", "lat": -15.155834839083353, "lon": 44.31842856609629, "alt_km": 765.3721791291291, "timestamp": "2025-12-19T14:48:36.632690+00:00", "meta": {"OBJECT_NAME": "IRIDIUM 33 DEB", "OBJECT_ID": "1997-051EN", "EPOCH": "2025-12-19T03:11:39.945408", "MEAN_MOTION": 14.38508712, "ECCENTRICITY": 0.00259924, "INCLINATION": 86.3502, "RA_OF_ASC_NODE": 45.5154, "ARG_OF_PERICENTER": 265.2251, "MEAN_ANOMALY": 94.5979, "EPHEMERIS_TYPE": 0, "CLASSIFICATION_TYPE": "U", "NORAD_CAT_ID": 34159, "ELEMENT_SET_NO": 999, "REV_AT_EPOCH": 88051, "BSTAR": 0.00029175087, "MEAN_MOTION_DOT": 9.14e-06, "MEAN_MOTION_DDOT": 0}, "tle": {"line1": "1 34159U 97051EN  25353.13310122  .00000914  00000+0  29175-3 0  9995", "line2": "2 34159  86.3502  45.5154 0025992 265.2251  94.5979 14.38508712880516"}}, "geometry": {"type": "Point", "coordinates": [44.31842856609629, -15.155834839083353]}}, {"type": "Feature", "properties": {"norad_id": 34350, "name": "IRIDIUM 33 DEB", "group": "iridium-33-debris", "lat": -4.179712489458727, "lon": -179.9083292407285, "alt_km": 738.6240807115719, "timestamp": "2025-12-19T14:48:36.632701+00:00", "meta": {"OBJECT_NAME": "IRIDIUM 33 DEB", "OBJECT_ID": "1997-051ES", "EPOCH": "2025-12-19T07:23:11.638176", "MEAN_MOTION": 14.45401246, "ECCENTRICITY": 0.00232878, "INCLINATION": 86.3271, "RA_OF_ASC_NODE": 359.9569, "ARG_OF_PERICENTER": 114.9915, "MEAN_ANOMALY": 260.3378, "EPHEMERIS_TYPE": 0, "CLASSIFICATION_TYPE": "U", "NORAD_CAT_ID": 34350, "ELEMENT_SET_NO": 999, "REV_AT_EPOCH": 88388, "BSTAR": 0.00023910832, "MEAN_MOTION_DOT": 8.64e-06, "MEAN_MOTION_DDOT": 0}, "tle": {"line1": "1 34350U 97051ES  25353.30777359  .00000864  00000+0  23911-3 0  9992", "line2": "2 34350  86.3271 359.9569 0023287 114.9915 260.3378 14.45401246883887"}}, "geometry": {"type": "Point", "coordinates": [-179.9083292407285, -4.179712489458727]}}, {"type": "Feature", "properties": {"norad_id": 34366, "name": "IRIDIUM 33 DEB", "group": "iridium-33-debris", "lat": 6.2765416865106065, "lon": 46.7229025231447, "alt_km": 720.4058390710807, "timestamp": "2025-12-19T14:48:36.632712+00:00", "meta": {"OBJECT_NAME": "IRIDIUM 33 DEB", "OBJECT_ID": "1997-051FJ", "EPOCH": "2025-12-18T14:34:32.858400", "MEAN_MOTION": 14.54103617, "ECCENTRICITY": 0.00228949, "INCLINATION": 86.3697, "RA_OF_ASC_NODE": 46.7619, "ARG_OF_PERICENTER": 121.3306, "MEAN_ANOMALY": 2.8167, "EPHEMERIS_TYPE": 0, "CLASSIFICATION_TYPE": "U", "NORAD_CAT_ID": 34366, "ELEMENT_SET_NO": 999, "REV_AT_EPOCH": 88267, "BSTAR": 0.00070491505, "MEAN_MOTION_DOT": 3.008e-05, "MEAN_MOTION_DDOT": 0}, "tle": {"line1": "1 34366U 97051FJ  25352.60732475  .00003008  00000+0  70492-3 0  9990", "line2": "2 34366  86.3697  46.7619 0022894 121.3306   2.8167 14.54103617882674"}}, "geometry": {"type": "Point", "coordinates": [46.7229025231447, 6.2765416865106065]}}]}